NUSAT-1 (FRESCO)        
1 41557U 16033B   22333.44088174  .00018038  00000+0  45622-3 0  9995
2 41557  97.3906  71.9400 0010616 142.1454 287.2851 15.39774210362726
BEESAT-4                
1 41619U 16040W   22332.10540923  .00016908  00000+0  47415-3 0  9995
2 41619  97.1944  18.6919 0006445 243.5853 116.4730 15.36631204345803
CAS-2T & KS-1Q          
1 41847U 16066G   22332.47208748  .00000650  00000+0  10564-3 0  9994
2 41847  98.5321  36.8313 0363697  79.1268 285.0619 14.38923800317937
NAYIF-1 (EO-88)         
1 42017U 17008BX  22333.10608359  .00020430  00000+0  49039-3 0  9991
2 42017  97.2484  37.2942 0004456  31.9865 328.1651 15.41383485322373
ZHUHAI-1 02 (CAS-4B)    
1 42759U 17034B   22333.53746353  .00002755  00000+0  16422-3 0  9997
2 42759  43.0158 141.9207 0011339 256.7075 164.6544 15.13338208301359
ZHUHAI-1 01 (CAS-4A)    
1 42761U 17034D   22333.49579249  .00002638  00000+0  15742-3 0  9997
2 42761  43.0159 140.8167 0011552 259.8871 150.7974 15.13425337301354
MAX VALIER SAT          
1 42778U 17036P   22333.05634691  .00009356  00000+0  32252-3 0  9991
2 42778  97.1857   8.6203 0011865  98.6797 261.5789 15.30142844302042
RADFXSAT (FOX-1B)       
1 43017U 17073E   22332.64546986  .00005063  00000+0  37429-3 0  9994
2 43017  97.6531 220.0514 0244756   9.9535 350.6400 14.82705877271435
FOX-1D (AO-92)          
1 43137U 18004AC  22333.19458769  .00012568  00000+0  39331-3 0  9996
2 43137  97.3535  47.1001 0008212 130.3033 229.8929 15.33227311271549
DIWATA-2B               
1 43678U 18084H   22333.46275904  .00000562  00000+0  60505-4 0  9991
2 43678  97.9933 108.9361 0011063  99.6533 260.5976 14.92506969222466
ES'HAIL 2               
1 43700U 18090A   22332.39563191  .00000149  00000+0  00000+0 0  9993
2 43700   0.0166 287.7497 0000992 339.3670 328.4033  1.00270725 14679
FOX-1CLIFF (AO-95)      
1 43770U 18099N   22332.64007436  .00002440  00000+0  21470-3 0  9996
2 43770  97.6012  34.6404 0014947  86.2642 274.0290 14.97337543217574
ITASAT 1                
1 43786U 18099AE  22332.62304124  .00001469  00000+0  13109-3 0  9995
2 43786  97.6051  35.6229 0015956  78.3507 281.9505 14.97367825217610
JY1SAT (JO-97)          
1 43803U 18099AX  22333.17821536  .00002755  00000+0  23727-3 0  9993
2 43803  97.5999  35.9828 0015297  76.8425 283.4504 14.98067765217727
UWE-4                   
1 43880U 18111E   22333.18970558  .00002739  00000+0  22926-3 0  9995
2 43880  97.6557 236.6036 0011441 124.1823 236.0486 14.99226534212371
NEXUS (FO-99)           
1 43937U 19003F   22332.82394570  .00013593  00000+0  39518-3 0  9998
2 43937  97.1140   0.0880 0016279 286.7253  73.2205 15.35433949215153
PSAT2 (NO-104)          
1 44354U 19036R   22333.45162284  .00113717 -29701-5  57453-3 0  9996
2 44354  28.5194  96.3808 0148272  60.9134 300.6233 15.65684534190309
JAISAT-1                
1 44419U 19038F   22333.36096932  .00009552  00000+0  43884-3 0  9994
2 44419  97.6568 305.3158 0015686 284.1226  75.8265 15.20495379188084
DUCHIFAT-3              
1 44854U 19089C   22333.03977946  .00003493  00000+0  26436-3 0  9992
2 44854  36.9646 203.7708 0005549 119.6969  24.1353 15.02423387162688
CAS-6 (TIANQIN 1)       
1 44881U 19093C   22333.54389371  .00000508  00000+0  70665-4 0  9990
2 44881  97.8813  50.2944 0015271  14.2247 345.9402 14.81946511159229
RS-44 & BREEZE-KM R/B   
1 44909U 19096E   22332.52936908  .00000009  00000+0 -51222-6 0  9992
2 44909  82.5185 121.2839 0216511 296.2014  61.6970 12.79716713136499
ORBITAL FACTORY 2 (OF-2)
1 45113U 19071C   22332.69481968  .00051271  00000+0  68240-3 0  9993
2 45113  51.6352 325.4340 0011704  57.6176 302.5947 15.57566151158853
HUSKYSAT-1 (HO-107)     
1 45119U 19071J   22333.38197773  .00042845  00000+0  63233-3 0  9998
2 45119  51.6355 323.9870 0011326  56.5657 303.6416 15.54857721158929
BY70-2                  
1 45857U 20042B   22333.50191640  .00006569  00000+0  82877-3 0  9996
2 45857  97.9452  48.9162 0008864 301.1535  58.8821 14.82246265129881
SALSAT                  
1 46495U 20068K   22332.40013727  .00003008  00000+0  21374-3 0  9990
2 46495  97.7468 273.9593 0017761  82.0996 278.2246 15.05359511118843
BY70-3                  
1 46839U 20079N   22333.49905108  .00041050  00000+0  68001-3 0  9994
2 46839  97.1809  44.1950 0005281  97.5408   0.2240 15.52045185115740
RADFXSAT-2 (AO-109)     
1 47311U 21002C   22333.38274321  .00010940  00000+0  39194-3 0  9996
2 47311  60.6837 100.0821 0038109  76.0744 284.4580 15.28583964103656
UVSQ-SAT                
1 47438U 21006AB  22332.89477382  .00005886  00000+0  29301-3 0  9999
2 47438  97.4162  28.5496 0012754  67.4606 292.7976 15.17902528102206
DIY-1 (ARDUIQUBE)       
1 47963U 21022AH  22333.21207015  .00024908  00000+0  11482-2 0  9997
2 47963  97.5171 233.1431 0012338 292.2876  67.7051 15.20187415 91911
XW-3 (CAS-9)            
1 50466U 21131B   22333.50527575  .00000188  00000+0  76092-4 0  9992
2 50466  98.5696  50.5853 0004689  31.2432 328.9033 14.38583199 48645
TEVEL-3                 
1 50988U 22002E   22333.42620576  .00007884  00000+0  40169-3 0  9990
2 50988  97.4634  37.7341 0008526 203.4009 212.3556 15.17019018 48402
TEVEL-8                 
1 50989U 22002F   22333.43860047  .00007981  00000+0  40722-3 0  9994
2 50989  97.4644  37.7821 0008566 202.9802 220.8647 15.16963840 48401
TEVEL-5                 
1 50998U 22002Q   22333.39341613  .00007892  00000+0  39580-3 0  9993
2 50998  97.4630  37.9020 0009968 200.2907 221.1785 15.17561611 48412
TEVEL-6                 
1 50999U 22002R   22333.45772170  .00007989  00000+0  40049-3 0  9996
2 50999  97.4623  37.9612 0010145 199.1038 218.3049 15.17569411 48420
TEVEL-1                 
1 51013U 22002AF  22333.43268611  .00007939  00000+0  40481-3 0  9997
2 51013  97.4625  37.7081 0008505 203.2871 219.9139 15.16989876 48402
TEVEL-7                 
1 51062U 22002CG  22333.43970201  .00007975  00000+0  40692-3 0  9990
2 51062  97.4640  37.7647 0008610 202.6071 216.0839 15.16961872 48404
TEVEL-4                 
1 51063U 22002CH  22333.44101943  .00007987  00000+0  40775-3 0  9996
2 51063  97.4642  37.7599 0008640 202.5240 214.2558 15.16945012 48409
TEVEL-2                 
1 51069U 22002CP  22333.42784928  .00007929  00000+0  40400-3 0  9991
2 51069  97.4624  37.7158 0008418 203.9172 211.3415 15.17014408 48405
GREENCUBE               
1 53106U 22080B   22333.20680169 -.00000003  00000+0  00000+0 0  9994
2 53106  70.1674  29.2040 0008989 230.6872 129.2991  6.42557289  8909
YUZGU 9 (RS3S)          
1 53308U 98067TT  22333.19208778  .00109797  00000+0  97168-3 0  9990
2 53308  51.6355 232.6483 0008648 141.6172 218.5441 15.67740143 20401
YUZGU 7 (RS1S)          
1 53309U 98067TU  22333.36401313  .00110942  00000+0  95589-3 0  9999
2 53309  51.6344 231.5403 0009030 146.0988 214.0587 15.68386464 20382
YUZGU 11 (RS5S)         
1 53310U 98067TV  22333.31838468  .00107673  00000+0  95264-3 0  9998
2 53310  51.6354 231.9912 0008794 144.3874 215.7710 15.67753500 20402
YUZGU 12 (RS6S)         
1 53311U 98067TW  22333.28018926  .00123109  00000+0  10314-2 0  9998
2 53311  51.6346 231.7293 0008715 141.8478 218.3137 15.69024501 20427
TSIOLKOVSKY-RYAZAN 1 (*)
1 53312U 98067TX  22333.30216125  .00113024  00000+0  98743-3 0  9991
2 53312  51.6352 231.8840 0009077 146.0263 214.1317 15.68038174 20362
TSIOLKOVSKY-RYAZAN 2 (*)
1 53313U 98067TY  22333.29813971  .00111133  00000+0  96350-3 0  9993
2 53313  51.6353 231.8580 0008665 147.2860 212.8675 15.68237945 20418
YUZGU 10 (RS4S)         
1 53321U 98067TZ  22333.31109000  .00111165  00000+0  96998-3 0  9999
2 53321  51.6352 231.9427 0008829 143.7053 216.4544 15.68079079 20411
RS29S (SXC3-2110 CYCLO*)
1 53373U 22096D   22333.55304462  .00011489  00000+0  43417-3 0  9996
2 53373  97.4283 234.2920 0003003 104.5935  18.6659 15.27143322 17116
RS32S (SXC3-212 MONITO*)
1 53374U 22096E   22333.54525757  .00010370  00000+0  39142-3 0  9996
2 53374  97.4275 234.2979 0003082  96.0982  26.7705 15.27207918 17110
RS34S (SXC3-218 KUZBAS*)
1 53375U 22096F   22333.48822906  .00009350  00000+0  35739-3 0  9990
2 53375  97.4281 234.2170 0003114 101.1636   6.8780 15.26819398 17102
RS23S (SXC3-21 UTMN)    
1 53376U 22096G   22333.55353188  .00009739  00000+0  37135-3 0  9993
2 53376  97.4280 234.2902 0003191  99.4348  23.2155 15.26891188 17116
RS28S (SXC3-214 MIET-A*)
1 53377U 22096H   22333.55271041  .00009101  00000+0  34780-3 0  9997
2 53377  97.4287 234.2926 0003273  96.9192  25.5257 15.26835689 17112
RS26S (KAI-1)           
1 53378U 22096J   22333.42452663  .00008061  00000+0  31020-3 0  9993
2 53378  97.4282 234.1521 0003271  91.7526  21.6948 15.26644072 17095
RS19S (SXC3-219 ISOI)   
1 53381U 22096M   22333.45211920  .00009485  00000+0  35664-3 0  9998
2 53381  97.4282 234.2695 0006061  63.2238  54.1910 15.27349386 17109
RS21S (CUBESX-HSE-2)    
1 53383U 22096P   22333.51607931  .00009467  00000+0  35551-3 0  9993
2 53383  97.4278 234.3428 0006297  61.3957  63.9213 15.27393199 17115
RS30S (SXC3-217 SIREN)  
1 53384U 22096Q   22333.51875176  .00008704  00000+0  32859-3 0  9993
2 53384  97.4282 234.3378 0006423  60.3483  65.0869 15.27241941 17116
RS20S (GEOSCAN-EDELVEIS)
1 53385U 22096R   22333.55203911  .00011857  00000+0  43487-3 0  9992
2 53385  97.4273 234.4412 0006749  59.7114  63.5748 15.28106830 17152
RS33S (SXC3-215 VIZARD) 
1 53386U 22096S   22333.45293002  .00014099  00000+0  50436-3 0  9995
2 53386  97.4277 234.4195 0007752  59.6388  59.2189 15.28877062 17133
